[{"OBJECT_NAME":"PERUSAT 1","OBJECT_ID":"2016-058A","EPOCH":"2026-03-09T23:16:32.302848","MEAN_MOTION":14.58548827,"ECCENTRICITY":0.00012113,"INCLINATION":98.2091,"RA_OF_ASC_NODE":143.8668,"ARG_OF_PERICENTER":91.7691,"MEAN_ANOMALY":268.3647,"EPHEMERIS_TYPE":0,"CLASSIFICATION_TYPE":"U","NORAD_CAT_ID":41770,"ELEMENT_SET_NO":999,"REV_AT_EPOCH":50463,"BSTAR":7.1568116e-5,"MEAN_MOTION_DOT":2.87e-6,"MEAN_MOTION_DDOT":0},{"OBJECT_NAME":"CZ-6A DEB","OBJECT_ID":"2022-151AFR","EPOCH":"2026-03-09T05:35:50.250336","MEAN_MOTION":14.7956831,"ECCENTRICITY":0.01345943,"INCLINATION":98.6622,"RA_OF_ASC_NODE":165.7254,"ARG_OF_PERICENTER":140.0218,"MEAN_ANOMALY":221.0996,"EPHEMERIS_TYPE":0,"CLASSIFICATION_TYPE":"U","NORAD_CAT_ID":56641,"ELEMENT_SET_NO":999,"REV_AT_EPOCH":15895,"BSTAR":0.00092929705,"MEAN_MOTION_DOT":8.055e-5,"MEAN_MOTION_DDOT":0}]
